LEGION 1                
1 59625U 24081A   24137.15279574  .00014460  00000+0  75210-3 0  9991
2 59625  97.5764 208.2648 0004988 118.3896 241.7840 15.16147669  2028
